{
  "superheroes": [
    {
      "division_id": "1",
      "district_id": "34",
      "upazila": "Amtali",
      "postOffice": "Amtali",
      "postCode": "8710",
      "label": "Amtali",
      "id": "8710"
    },
    {
      "division_id": "1",
      "district_id": "34",
      "upazila": "Bamna",
      "postOffice": "Bamna",
      "postCode": "8730",
      "label": "Bamna",
      "id": "8730"
    },
    {
      "division_id": "2",
      "district_id": "35",
      "upazila": "jigatoli",
      "postOffice": "jigatoli",
      "postCode": "8988",
      "label": "mitali",
      "id": "7rr7pNk"
    },
    {
      "division_id": "12",
      "district_id": "jamalpur",
      "upazila": "jamalpur",
      "postOffice": "jamalpur ",
      "postCode": "223",
      "label": "244",
      "id": "ip6BSNQ"
    },
    {
      "division_id": "1",
      "district_id": "12",
      "upazila": "dhaka",
      "postOffice": "dhaka",
      "postCode": "dhaka",
      "label": "dhaka",
      "id": "j0y__yk"
    },
    {
      "division_id": "qw",
      "district_id": "qwe",
      "upazila": "qwe",
      "postOffice": "ada",
      "postCode": "asda",
      "label": "adsa",
      "id": "I2rBU9T"
    },
    {
      "division_id": "hello",
      "district_id": "honey",
      "upazila": "boney",
      "postOffice": "togo",
      "postCode": "togo",
      "label": "0000",
      "id": "5h8o9Xc"
    },
    {
      "division_id": "felling",
      "district_id": "something",
      "upazila": "something",
      "postOffice": "hello",
      "postCode": "honey",
      "label": "boney",
      "id": "hk7vxh_"
    },
    {
      "division_id": "tt",
      "district_id": "tt",
      "upazila": "tt",
      "postOffice": "tt",
      "postCode": "tt",
      "label": "Yes",
      "id": "Vjnpq7A"
    },
    {
      "division_id": "fake",
      "district_id": "hero",
      "upazila": "batman",
      "postOffice": "yes",
      "postCode": "no",
      "label": "yes all heros are fake",
      "id": "guUT6vl"
    },
    {
      "division_id": "but",
      "district_id": "one ",
      "upazila": "are ",
      "postOffice": "not",
      "postCode": "fake",
      "label": "tell who",
      "id": "S_Vhmur"
    },
    {
      "division_id": "I",
      "district_id": "know",
      "upazila": "how",
      "postOffice": "is",
      "postCode": "not",
      "label": "fake hero",
      "id": "4ZkY0gK"
    },
    {
      "division_id": "okay",
      "district_id": "that's find",
      "upazila": "I will",
      "postOffice": "tell",
      "postCode": "his",
      "label": "name",
      "id": "ZoPyWWe"
    },
    {
      "division_id": "he",
      "district_id": "is",
      "upazila": "idol",
      "postOffice": "of",
      "postCode": "all",
      "label": "over the world",
      "id": "ikPsoxk"
    }
  ],
  "friends": [
    {
      "id": "123@gmail.com",
      "detailsId": "1"
    },
    {
      "id": "456@gmail.com",
      "detailsId": "4"
    },
    {
      "id": "789@gmail.com",
      "detailsId": "7"
    }
  ],
  "details": [
    {
      "id": "1",
      "Name": "Picka Chu",
      "role": [
        "admin",
        "member"
      ]
    },
    {
      "id": "4",
      "Name": "Mimna Chu",
      "role": [
        "admin",
        "member",
        "portal"
      ]
    },
    {
      "id": "7",
      "Name": "Pokemon mini",
      "role": [
        "member"
      ]
    }
  ]
}